SKYKRAFT-1A             
1 55054U 23001AX  26068.71064616  .00008177  00000+0  30069-3 0  9991
2 55054  97.3349 127.6290 0011277 121.5092 238.7251 15.28083228176529
STARLINK-31670          
1 59490U 24071G   26068.16467411  .00001330  00000+0  57863-4 0  9992
2 59490  42.9994 354.1263 0000412 293.6576  66.4232 15.27554228107995
