[{"OBJECT_NAME":"SKYKRAFT-1A","OBJECT_ID":"2023-001AX","EPOCH":"2026-03-09T17:03:19.828224","MEAN_MOTION":15.28083228,"ECCENTRICITY":0.00112767,"INCLINATION":97.3349,"RA_OF_ASC_NODE":127.629,"ARG_OF_PERICENTER":121.5092,"MEAN_ANOMALY":238.7251,"EPHEMERIS_TYPE":0,"CLASSIFICATION_TYPE":"U","NORAD_CAT_ID":55054,"ELEMENT_SET_NO":999,"REV_AT_EPOCH":17652,"BSTAR":0.0003006872,"MEAN_MOTION_DOT":8.177e-5,"MEAN_MOTION_DDOT":0},{"OBJECT_NAME":"STARLINK-31670","OBJECT_ID":"2024-071G","EPOCH":"2026-03-09T03:57:07.843104","MEAN_MOTION":15.27554228,"ECCENTRICITY":4.127e-5,"INCLINATION":42.9994,"RA_OF_ASC_NODE":354.1263,"ARG_OF_PERICENTER":293.6576,"MEAN_ANOMALY":66.4232,"EPHEMERIS_TYPE":0,"CLASSIFICATION_TYPE":"U","NORAD_CAT_ID":59490,"ELEMENT_SET_NO":999,"REV_AT_EPOCH":10799,"BSTAR":5.7863457e-5,"MEAN_MOTION_DOT":1.33e-5,"MEAN_MOTION_DDOT":0}]
